{"type": "FeatureCollection", "features": [{"type": "Feature", "properties": {"norad_id": 28054, "name": "DMSP 5D-3 F16 (USA 172)", "group": "weather", "lat": 45.723749079471915, "lon": -5.419363956464948, "alt_km": 839.8170805857735, "timestamp": "2025-12-12T11:38:31.058861+00:00", "meta": {"OBJECT_NAME": "DMSP 5D-3 F16 (USA 172)", "OBJECT_ID": "2003-048A", "EPOCH": "2025-12-12T03:16:07.260096", "MEAN_MOTION": 14.14423857, "ECCENTRICITY": 0.0006523, "INCLINATION": 99.0047, "RA_OF_ASC_NODE": 3.5884, "ARG_OF_PERICENTER": 322.7927, "MEAN_ANOMALY": 108.1529, "EPHEMERIS_TYPE": 0, "CLASSIFICATION_TYPE": "U", "NORAD_CAT_ID": 28054, "ELEMENT_SET_NO": 999, "REV_AT_EPOCH": 14304, "BSTAR": 0.00013378, "MEAN_MOTION_DOT": 2.11e-06, "MEAN_MOTION_DDOT": 0}, "tle": {"line1": "1 28054U 03048A   25346.13619514  .00000211  00000+0  13378-3 0  9992", "line2": "2 28054  99.0047   3.5884 0006523 322.7927 108.1529 14.14423857143043"}}, "geometry": {"type": "Point", "coordinates": [-5.419363956464948, 45.723749079471915]}}, {"type": "Feature", "properties": {"norad_id": 28912, "name": "METEOSAT-9 (MSG-2)", "group": "weather", "lat": -8.160487948949925, "lon": -58.49180228083457, "alt_km": 35777.21123400114, "timestamp": "2025-12-12T11:38:31.058911+00:00", "meta": {"OBJECT_NAME": "METEOSAT-9 (MSG-2)", "OBJECT_ID": "2005-049B", "EPOCH": "2025-12-11T20:34:34.468032", "MEAN_MOTION": 1.00276076, "ECCENTRICITY": 0.0003644, "INCLINATION": 8.9379, "RA_OF_ASC_NODE": 55.9858, "ARG_OF_PERICENTER": 189.8677, "MEAN_ANOMALY": 189.2654, "EPHEMERIS_TYPE": 0, "CLASSIFICATION_TYPE": "U", "NORAD_CAT_ID": 28912, "ELEMENT_SET_NO": 999, "REV_AT_EPOCH": 512, "BSTAR": 0, "MEAN_MOTION_DOT": 1.29e-06, "MEAN_MOTION_DDOT": 0}, "tle": {"line1": "1 28912U 05049B   25345.85734338  .00000129  00000+0  00000+0 0  9990", "line2": "2 28912   8.9379  55.9858 0003644 189.8677 189.2654  1.00276076  5125"}}, "geometry": {"type": "Point", "coordinates": [-58.49180228083457, -8.160487948949925]}}, {"type": "Feature", "properties": {"norad_id": 29522, "name": "DMSP 5D-3 F17 (USA 191)", "group": "weather", "lat": -13.469748219501378, "lon": -6.009056106582553, "alt_km": 850.5305518597361, "timestamp": "2025-12-12T11:38:31.058929+00:00", "meta": {"OBJECT_NAME": "DMSP 5D-3 F17 (USA 191)", "OBJECT_ID": "2006-050A", "EPOCH": "2025-12-12T03:13:13.759392", "MEAN_MOTION": 14.14919113, "ECCENTRICITY": 0.0009384, "INCLINATION": 98.7394, "RA_OF_ASC_NODE": 351.5359, "ARG_OF_PERICENTER": 226.7431, "MEAN_ANOMALY": 133.296, "EPHEMERIS_TYPE": 0, "CLASSIFICATION_TYPE": "U", "NORAD_CAT_ID": 29522, "ELEMENT_SET_NO": 999, "REV_AT_EPOCH": 98596, "BSTAR": 0.00016616, "MEAN_MOTION_DOT": 2.78e-06, "MEAN_MOTION_DDOT": 0}, "tle": {"line1": "1 29522U 06050A   25346.13418703  .00000278  00000+0  16616-3 0  9997", "line2": "2 29522  98.7394 351.5359 0009384 226.7431 133.2960 14.14919113985967"}}, "geometry": {"type": "Point", "coordinates": [-6.009056106582553, -13.469748219501378]}}, {"type": "Feature", "properties": {"norad_id": 32958, "name": "FENGYUN 3A", "group": "weather", "lat": 55.26407280623261, "lon": -86.69508368999519, "alt_km": 823.1768875049411, "timestamp": "2025-12-12T11:38:31.058943+00:00", "meta": {"OBJECT_NAME": "FENGYUN 3A", "OBJECT_ID": "2008-026A", "EPOCH": "2025-12-11T20:09:10.932768", "MEAN_MOTION": 14.19514245, "ECCENTRICITY": 0.00079441, "INCLINATION": 98.6697, "RA_OF_ASC_NODE": 285.3855, "ARG_OF_PERICENTER": 313.1724, "MEAN_ANOMALY": 46.8788, "EPHEMERIS_TYPE": 0, "CLASSIFICATION_TYPE": "U", "NORAD_CAT_ID": 32958, "ELEMENT_SET_NO": 999, "REV_AT_EPOCH": 90882, "BSTAR": 0.00012083885, "MEAN_MOTION_DOT": 2.11e-06, "MEAN_MOTION_DDOT": 0}, "tle": {"line1": "1 32958U 08026A   25345.83970987  .00000211  00000+0  12084-3 0  9994", "line2": "2 32958  98.6697 285.3855 0007944 313.1724  46.8788 14.19514245908829"}}, "geometry": {"type": "Point", "coordinates": [-86.69508368999519, 55.26407280623261]}}, {"type": "Feature", "properties": {"norad_id": 35491, "name": "GOES 14", "group": "weather", "lat": 1.0556332405627247, "lon": 146.44813003894893, "alt_km": 35835.94711332497, "timestamp": "2025-12-12T11:38:31.058957+00:00", "meta": {"OBJECT_NAME": "GOES 14", "OBJECT_ID": "2009-033A", "EPOCH": "2025-12-12T03:46:38.737056", "MEAN_MOTION": 1.00095984, "ECCENTRICITY": 8.07e-05, "INCLINATION": 1.2013, "RA_OF_ASC_NODE": 85.3986, "ARG_OF_PERICENTER": 161.9056, "MEAN_ANOMALY": 141.0791, "EPHEMERIS_TYPE": 0, "CLASSIFICATION_TYPE": "U", "NORAD_CAT_ID": 35491, "ELEMENT_SET_NO": 999, "REV_AT_EPOCH": 471, "BSTAR": 0, "MEAN_MOTION_DOT": -2.5e-07, "MEAN_MOTION_DDOT": 0}, "tle": {"line1": "1 35491U 09033A   25346.15739279 -.00000025  00000+0  00000+0 0  9996", "line2": "2 35491   1.2013  85.3986 0000807 161.9056 141.0791  1.00095984  4714"}}, "geometry": {"type": "Point", "coordinates": [146.44813003894893, 1.0556332405627247]}}, {"type": "Feature", "properties": {"norad_id": 35951, "name": "DMSP 5D-3 F18 (USA 210)", "group": "weather", "lat": -33.63186916803572, "lon": 136.9154820367114, "alt_km": 856.8016351627721, "timestamp": "2025-12-12T11:38:31.058969+00:00", "meta": {"OBJECT_NAME": "DMSP 5D-3 F18 (USA 210)", "OBJECT_ID": "2009-057A", "EPOCH": "2025-12-12T03:50:42.461088", "MEAN_MOTION": 14.14768587, "ECCENTRICITY": 0.0012062, "INCLINATION": 98.8834, "RA_OF_ASC_NODE": 322.5639, "ARG_OF_PERICENTER": 64.274, "MEAN_ANOMALY": 295.9677, "EPHEMERIS_TYPE": 0, "CLASSIFICATION_TYPE": "U", "NORAD_CAT_ID": 35951, "ELEMENT_SET_NO": 999, "REV_AT_EPOCH": 83314, "BSTAR": 0.00022478, "MEAN_MOTION_DOT": 3.89e-06, "MEAN_MOTION_DDOT": 0}, "tle": {"line1": "1 35951U 09057A   25346.16021367  .00000389  00000+0  22478-3 0  9995", "line2": "2 35951  98.8834 322.5639 0012062  64.2740 295.9677 14.14768587833144"}}, "geometry": {"type": "Point", "coordinates": [136.9154820367114, -33.63186916803572]}}, {"type": "Feature", "properties": {"norad_id": 36411, "name": "EWS-G2 (GOES 15)", "group": "weather", "lat": -0.6426508651846213, "lon": -42.4821058903388, "alt_km": 35773.37792067791, "timestamp": "2025-12-12T11:38:31.058983+00:00", "meta": {"OBJECT_NAME": "EWS-G2 (GOES 15)", "OBJECT_ID": "2010-008A", "EPOCH": "2025-12-12T03:29:59.404416", "MEAN_MOTION": 1.00269688, "ECCENTRICITY": 0.0005772, "INCLINATION": 0.8128, "RA_OF_ASC_NODE": 86.0579, "ARG_OF_PERICENTER": 174.5845, "MEAN_ANOMALY": 294.3634, "EPHEMERIS_TYPE": 0, "CLASSIFICATION_TYPE": "U", "NORAD_CAT_ID": 36411, "ELEMENT_SET_NO": 999, "REV_AT_EPOCH": 5776, "BSTAR": 0, "MEAN_MOTION_DOT": 4.8e-07, "MEAN_MOTION_DDOT": 0}, "tle": {"line1": "1 36411U 10008A   25346.14582644  .00000048  00000+0  00000+0 0  9998", "line2": "2 36411   0.8128  86.0579 0005772 174.5845 294.3634  1.00269688 57762"}}, "geometry": {"type": "Point", "coordinates": [-42.4821058903388, -0.6426508651846213]}}, {"type": "Feature", "properties": {"norad_id": 36744, "name": "COMS 1", "group": "weather", "lat": -3.488368357087742, "lon": 24.31585303650615, "alt_km": 35787.22880640564, "timestamp": "2025-12-12T11:38:31.058995+00:00", "meta": {"OBJECT_NAME": "COMS 1", "OBJECT_ID": "2010-032A", "EPOCH": "2025-12-11T15:50:01.719168", "MEAN_MOTION": 1.00270393, "ECCENTRICITY": 0.00010766, "INCLINATION": 4.3389, "RA_OF_ASC_NODE": 78.0101, "ARG_OF_PERICENTER": 214.1904, "MEAN_ANOMALY": 154.095, "EPHEMERIS_TYPE": 0, "CLASSIFICATION_TYPE": "U", "NORAD_CAT_ID": 36744, "ELEMENT_SET_NO": 999, "REV_AT_EPOCH": 4921, "BSTAR": 0, "MEAN_MOTION_DOT": -3.37e-06, "MEAN_MOTION_DDOT": 0}, "tle": {"line1": "1 36744U 10032A   25345.65974212 -.00000337  00000+0  00000+0 0  9997", "line2": "2 36744   4.3389  78.0101 0001076 214.1904 154.0950  1.00270393 49210"}}, "geometry": {"type": "Point", "coordinates": [24.31585303650615, -3.488368357087742]}}, {"type": "Feature", "properties": {"norad_id": 37214, "name": "FENGYUN 3B", "group": "weather", "lat": 1.3998952634885629, "lon": -153.31834614220824, "alt_km": 861.6800654440822, "timestamp": "2025-12-12T11:38:31.059007+00:00", "meta": {"OBJECT_NAME": "FENGYUN 3B", "OBJECT_ID": "2010-059A", "EPOCH": "2025-12-12T06:03:36.082944", "MEAN_MOTION": 14.14790568, "ECCENTRICITY": 0.0022073, "INCLINATION": 98.9907, "RA_OF_ASC_NODE": 26.2258, "ARG_OF_PERICENTER": 359.1021, "MEAN_ANOMALY": 75.4315, "EPHEMERIS_TYPE": 0, "CLASSIFICATION_TYPE": "U", "NORAD_CAT_ID": 37214, "ELEMENT_SET_NO": 999, "REV_AT_EPOCH": 78099, "BSTAR": 0.00023097, "MEAN_MOTION_DOT": 4.01e-06, "MEAN_MOTION_DDOT": 0}, "tle": {"line1": "1 37214U 10059A   25346.25250096  .00000401  00000+0  23097-3 0  9999", "line2": "2 37214  98.9907  26.2258 0022073 359.1021  75.4315 14.14790568780994"}}, "geometry": {"type": "Point", "coordinates": [-153.31834614220824, 1.3998952634885629]}}, {"type": "Feature", "properties": {"norad_id": 37849, "name": "SUOMI NPP", "group": "weather", "lat": 14.62344948983534, "lon": -78.48144218876267, "alt_km": 828.252644879427, "timestamp": "2025-12-12T11:38:31.059018+00:00", "meta": {"OBJECT_NAME": "SUOMI NPP", "OBJECT_ID": "2011-061A", "EPOCH": "2025-12-12T03:06:50.679072", "MEAN_MOTION": 14.19513918, "ECCENTRICITY": 0.0002226, "INCLINATION": 98.7772, "RA_OF_ASC_NODE": 283.4768, "ARG_OF_PERICENTER": 121.4018, "MEAN_ANOMALY": 238.7376, "EPHEMERIS_TYPE": 0, "CLASSIFICATION_TYPE": "U", "NORAD_CAT_ID": 37849, "ELEMENT_SET_NO": 999, "REV_AT_EPOCH": 73190, "BSTAR": 0.0001033, "MEAN_MOTION_DOT": 1.74e-06, "MEAN_MOTION_DDOT": 0}, "tle": {"line1": "1 37849U 11061A   25346.12975323  .00000174  00000+0  10330-3 0  9993", "line2": "2 37849  98.7772 283.4768 0002226 121.4018 238.7376 14.19513918731908"}}, "geometry": {"type": "Point", "coordinates": [-78.48144218876267, 14.62344948983534]}}]}